[{"OBJECT_NAME":"XW-2C","OBJECT_ID":"2015-049H","EPOCH":"2022-08-19T05:40:59.649600","MEAN_MOTION":15.19589359,"ECCENTRICITY":0.0015002,"INCLINATION":97.4945,"RA_OF_ASC_NODE":234.1726,"ARG_OF_PERICENTER":134.9743,"MEAN_ANOMALY":353.802,"EPHEMERIS_TYPE":0,"CLASSIFICATION_TYPE":"U","NORAD_CAT_ID":40906,"ELEMENT_SET_NO":999,"REV_AT_EPOCH":38245,"BSTAR":0.00018721,"MEAN_MOTION_DOT":3.926e-5,"MEAN_MOTION_DDOT":0},{"OBJECT_NAME":"XW-2D","OBJECT_ID":"2015-049J","EPOCH":"2022-08-19T03:41:58.160832","MEAN_MOTION":15.20315134,"ECCENTRICITY":0.0014429,"INCLINATION":97.4938,"RA_OF_ASC_NODE":234.1286,"ARG_OF_PERICENTER":130.7354,"MEAN_ANOMALY":294.4891,"EPHEMERIS_TYPE":0,"CLASSIFICATION_TYPE":"U","NORAD_CAT_ID":40907,"ELEMENT_SET_NO":999,"REV_AT_EPOCH":38249,"BSTAR":0.00021368,"MEAN_MOTION_DOT":4.587e-5,"MEAN_MOTION_DDOT":0},{"OBJECT_NAME":"LILACSAT-2","OBJECT_ID":"2015-049K","EPOCH":"2022-08-19T03:02:57.673824","MEAN_MOTION":15.16084388,"ECCENTRICITY":0.0015825,"INCLINATION":97.5182,"RA_OF_ASC_NODE":231.1071,"ARG_OF_PERICENTER":153.8616,"MEAN_ANOMALY":271.1153,"EPHEMERIS_TYPE":0,"CLASSIFICATION_TYPE":"U","NORAD_CAT_ID":40908,"ELEMENT_SET_NO":999,"REV_AT_EPOCH":38198,"BSTAR":0.0001264,"MEAN_MOTION_DOT":2.372e-5,"MEAN_MOTION_DDOT":0},{"OBJECT_NAME":"XW-2E","OBJECT_ID":"2015-049L","EPOCH":"2022-08-19T04:03:26.108352","MEAN_MOTION":15.24452293,"ECCENTRICITY":0.0013793,"INCLINATION":97.4656,"RA_OF_ASC_NODE":238.8157,"ARG_OF_PERICENTER":112.0516,"MEAN_ANOMALY":313.1566,"EPHEMERIS_TYPE":0,"CLASSIFICATION_TYPE":"U","NORAD_CAT_ID":40909,"ELEMENT_SET_NO":999,"REV_AT_EPOCH":38296,"BSTAR":0.00030977,"MEAN_MOTION_DOT":7.553e-5,"MEAN_MOTION_DDOT":0},{"OBJECT_NAME":"XW-2F","OBJECT_ID":"2015-049M","EPOCH":"2022-08-19T02:52:50.889216","MEAN_MOTION":15.23915978,"ECCENTRICITY":0.0014623,"INCLINATION":97.4726,"RA_OF_ASC_NODE":237.9163,"ARG_OF_PERICENTER":112.6554,"MEAN_ANOMALY":320.0613,"EPHEMERIS_TYPE":0,"CLASSIFICATION_TYPE":"U","NORAD_CAT_ID":40910,"ELEMENT_SET_NO":999,"REV_AT_EPOCH":38272,"BSTAR":0.00031337,"MEAN_MOTION_DOT":7.522e-5,"MEAN_MOTION_DDOT":0},{"OBJECT_NAME":"XW-2B","OBJECT_ID":"2015-049N","EPOCH":"2022-08-19T05:58:57.079200","MEAN_MOTION":15.20198551,"ECCENTRICITY":0.0014243,"INCLINATION":97.4924,"RA_OF_ASC_NODE":234.8044,"ARG_OF_PERICENTER":131.6922,"MEAN_ANOMALY":290.523,"EPHEMERIS_TYPE":0,"CLASSIFICATION_TYPE":"U","NORAD_CAT_ID":40911,"ELEMENT_SET_NO":999,"REV_AT_EPOCH":38239,"BSTAR":0.00021958,"MEAN_MOTION_DOT":4.699e-5,"MEAN_MOTION_DDOT":0},{"OBJECT_NAME":"KAITUO 1B","OBJECT_ID":"2015-049P","EPOCH":"2022-08-19T03:00:28.139616","MEAN_MOTION":15.27160745,"ECCENTRICITY":0.0014639,"INCLINATION":97.4366,"RA_OF_ASC_NODE":242.269,"ARG_OF_PERICENTER":83.1364,"MEAN_ANOMALY":349.9295,"EPHEMERIS_TYPE":0,"CLASSIFICATION_TYPE":"U","NORAD_CAT_ID":40912,"ELEMENT_SET_NO":999,"REV_AT_EPOCH":38331,"BSTAR":0.00033977,"MEAN_MOTION_DOT":9.003e-5,"MEAN_MOTION_DDOT":0},{"OBJECT_NAME":"TIANWANG 1A (TW-1A)","OBJECT_ID":"2015-051D","EPOCH":"2022-08-19T03:09:36.436608","MEAN_MOTION":15.64569051,"ECCENTRICITY":0.0008596,"INCLINATION":97.0351,"RA_OF_ASC_NODE":253.4284,"ARG_OF_PERICENTER":134.8603,"MEAN_ANOMALY":296.2396,"EPHEMERIS_TYPE":0,"CLASSIFICATION_TYPE":"U","NORAD_CAT_ID":40928,"ELEMENT_SET_NO":999,"REV_AT_EPOCH":38802,"BSTAR":0.0004611,"MEAN_MOTION_DOT":0.00044575,"MEAN_MOTION_DDOT":0},{"OBJECT_NAME":"LAPAN-A2","OBJECT_ID":"2015-052B","EPOCH":"2022-08-19T01:17:30.268320","MEAN_MOTION":14.76842418,"ECCENTRICITY":0.0013718,"INCLINATION":6.0031,"RA_OF_ASC_NODE":82.5439,"ARG_OF_PERICENTER":335.686,"MEAN_ANOMALY":24.2627,"EPHEMERIS_TYPE":0,"CLASSIFICATION_TYPE":"U","NORAD_CAT_ID":40931,"ELEMENT_SET_NO":999,"REV_AT_EPOCH":37261,"BSTAR":-1.2913e-5,"MEAN_MOTION_DOT":5.48e-6,"MEAN_MOTION_DDOT":0},{"OBJECT_NAME":"LQSAT","OBJECT_ID":"2015-057A","EPOCH":"2022-08-19T02:04:37.211520","MEAN_MOTION":14.73408886,"ECCENTRICITY":0.001931,"INCLINATION":97.7453,"RA_OF_ASC_NODE":274.4823,"ARG_OF_PERICENTER":116.5355,"MEAN_ANOMALY":243.7846,"EPHEMERIS_TYPE":0,"CLASSIFICATION_TYPE":"U","NORAD_CAT_ID":40958,"ELEMENT_SET_NO":999,"REV_AT_EPOCH":36920,"BSTAR":4.9826e-5,"MEAN_MOTION_DOT":2.76e-6,"MEAN_MOTION_DDOT":0},{"OBJECT_NAME":"ATHENOXAT 1","OBJECT_ID":"2015-077C","EPOCH":"2022-08-18T13:32:09.604320","MEAN_MOTION":15.22259183,"ECCENTRICITY":0.0009539,"INCLINATION":14.994,"RA_OF_ASC_NODE":349.604,"ARG_OF_PERICENTER":31.9268,"MEAN_ANOMALY":62.5658,"EPHEMERIS_TYPE":0,"CLASSIFICATION_TYPE":"U","NORAD_CAT_ID":41168,"ELEMENT_SET_NO":999,"REV_AT_EPOCH":36978,"BSTAR":0.00044503,"MEAN_MOTION_DOT":0.00011349,"MEAN_MOTION_DDOT":0},{"OBJECT_NAME":"GALASSIA","OBJECT_ID":"2015-077E","EPOCH":"2022-08-18T12:02:52.268640","MEAN_MOTION":15.21338251,"ECCENTRICITY":0.0010686,"INCLINATION":14.9891,"RA_OF_ASC_NODE":341.413,"ARG_OF_PERICENTER":61.5277,"MEAN_ANOMALY":298.6121,"EPHEMERIS_TYPE":0,"CLASSIFICATION_TYPE":"U","NORAD_CAT_ID":41170,"ELEMENT_SET_NO":999,"REV_AT_EPOCH":36968,"BSTAR":0.00044604,"MEAN_MOTION_DOT":0.00011085,"MEAN_MOTION_DDOT":0},{"OBJECT_NAME":"VELOX-II","OBJECT_ID":"2015-077F","EPOCH":"2022-08-18T03:52:04.073664","MEAN_MOTION":15.1649103,"ECCENTRICITY":0.0007702,"INCLINATION":14.9918,"RA_OF_ASC_NODE":60.484,"ARG_OF_PERICENTER":250.8892,"MEAN_ANOMALY":109.0596,"EPHEMERIS_TYPE":0,"CLASSIFICATION_TYPE":"U","NORAD_CAT_ID":41171,"ELEMENT_SET_NO":999,"REV_AT_EPOCH":36899,"BSTAR":0.00042707,"MEAN_MOTION_DOT":9.295e-5,"MEAN_MOTION_DDOT":0},{"OBJECT_NAME":"CHUBUSAT-2","OBJECT_ID":"2016-012B","EPOCH":"2022-08-18T13:22:51.697056","MEAN_MOTION":15.0155622,"ECCENTRICITY":0.001331,"INCLINATION":31.0039,"RA_OF_ASC_NODE":348.408,"ARG_OF_PERICENTER":48.679,"MEAN_ANOMALY":311.4989,"EPHEMERIS_TYPE":0,"CLASSIFICATION_TYPE":"U","NORAD_CAT_ID":41338,"ELEMENT_SET_NO":999,"REV_AT_EPOCH":35682,"BSTAR":0.00012539,"MEAN_MOTION_DOT":1.752e-5,"MEAN_MOTION_DDOT":0},{"OBJECT_NAME":"CHUBUSAT-3","OBJECT_ID":"2016-012C","EPOCH":"2022-08-19T00:18:21.406464","MEAN_MOTION":15.01620195,"ECCENTRICITY":0.0013122,"INCLINATION":31.0125,"RA_OF_ASC_NODE":342.4268,"ARG_OF_PERICENTER":60.4749,"MEAN_ANOMALY":299.7205,"EPHEMERIS_TYPE":0,"CLASSIFICATION_TYPE":"U","NORAD_CAT_ID":41339,"ELEMENT_SET_NO":999,"REV_AT_EPOCH":35689,"BSTAR":0.00010152,"MEAN_MOTION_DOT":1.437e-5,"MEAN_MOTION_DDOT":0},{"OBJECT_NAME":"HORYU-4","OBJECT_ID":"2016-012D","EPOCH":"2022-08-18T13:55:24.775104","MEAN_MOTION":15.03618532,"ECCENTRICITY":0.0013146,"INCLINATION":31.0053,"RA_OF_ASC_NODE":322.2689,"ARG_OF_PERICENTER":98.8272,"MEAN_ANOMALY":261.3853,"EPHEMERIS_TYPE":0,"CLASSIFICATION_TYPE":"U","NORAD_CAT_ID":41340,"ELEMENT_SET_NO":999,"REV_AT_EPOCH":35708,"BSTAR":0.00021698,"MEAN_MOTION_DOT":3.132e-5,"MEAN_MOTION_DDOT":0},{"OBJECT_NAME":"OUFTI-1","OBJECT_ID":"2016-025C","EPOCH":"2022-08-18T17:55:30.663552","MEAN_MOTION":15.15993345,"ECCENTRICITY":0.0139399,"INCLINATION":98.1923,"RA_OF_ASC_NODE":42.1442,"ARG_OF_PERICENTER":53.4187,"MEAN_ANOMALY":307.9777,"EPHEMERIS_TYPE":0,"CLASSIFICATION_TYPE":"U","NORAD_CAT_ID":41458,"ELEMENT_SET_NO":999,"REV_AT_EPOCH":34701,"BSTAR":0.00055532,"MEAN_MOTION_DOT":0.00013609,"MEAN_MOTION_DDOT":0}]