XW-2C                   
1 40906U 15049H   22231.23680150  .00003926  00000+0  18721-3 0  9994
2 40906  97.4945 234.1726 0015002 134.9743 353.8020 15.19589359382451
XW-2D                   
1 40907U 15049J   22231.15414538  .00004587  00000+0  21368-3 0  9996
2 40907  97.4938 234.1286 0014429 130.7354 294.4891 15.20315134382499
LILACSAT-2              
1 40908U 15049K   22231.12705641  .00002372  00000+0  12640-3 0  9995
2 40908  97.5182 231.1071 0015825 153.8616 271.1153 15.16084388381984
XW-2E                   
1 40909U 15049L   22231.16905218  .00007553  00000+0  30977-3 0  9991
2 40909  97.4656 238.8157 0013793 112.0516 313.1566 15.24452293382964
XW-2F                   
1 40910U 15049M   22231.12003344  .00007522  00000+0  31337-3 0  9995
2 40910  97.4726 237.9163 0014623 112.6554 320.0613 15.23915978382729
XW-2B                   
1 40911U 15049N   22231.24927175  .00004699  00000+0  21958-3 0  9996
2 40911  97.4924 234.8044 0014243 131.6922 290.5230 15.20198551382398
KAITUO 1B               
1 40912U 15049P   22231.12532569  .00009003  00000+0  33977-3 0  9991
2 40912  97.4366 242.2690 0014639  83.1364 349.9295 15.27160745383313
TIANWANG 1A (TW-1A)     
1 40928U 15051D   22231.13167172  .00044575  00000+0  46110-3 0  9992
2 40928  97.0351 253.4284 0008596 134.8603 296.2396 15.64569051388021
LAPAN-A2                
1 40931U 15052B   22231.05382255  .00000548  00000+0 -12913-4 0  9997
2 40931   6.0031  82.5439 0013718 335.6860  24.2627 14.76842418372618
LQSAT                   
1 40958U 15057A   22231.08654180  .00000276  00000+0  49826-4 0  9993
2 40958  97.7453 274.4823 0019310 116.5355 243.7846 14.73408886369206
ATHENOXAT 1             
1 41168U 15077C   22230.56400005  .00011349  00000+0  44503-3 0  9995
2 41168  14.9940 349.6040 0009539  31.9268  62.5658 15.22259183369783
GALASSIA                
1 41170U 15077E   22230.50199385  .00011085  00000+0  44604-3 0  9997
2 41170  14.9891 341.4130 0010686  61.5277 298.6121 15.21338251369684
VELOX-II                
1 41171U 15077F   22230.16115826  .00009295  00000+0  42707-3 0  9990
2 41171  14.9918  60.4840 0007702 250.8892 109.0596 15.16491030368995
CHUBUSAT-2              
1 41338U 16012B   22230.55754279  .00001752  00000+0  12539-3 0  9999
2 41338  31.0039 348.4080 0013310  48.6790 311.4989 15.01556220356822
CHUBUSAT-3              
1 41339U 16012C   22231.01274776  .00001437  00000+0  10152-3 0  9990
2 41339  31.0125 342.4268 0013122  60.4749 299.7205 15.01620195356897
HORYU-4                 
1 41340U 16012D   22230.58014786  .00003132  00000+0  21698-3 0  9997
2 41340  31.0053 322.2689 0013146  98.8272 261.3853 15.03618532357084
OUFTI-1                 
1 41458U 16025C   22230.74688268  .00013609  00000+0  55532-3 0  9995
2 41458  98.1923  42.1442 0139399  53.4187 307.9777 15.15993345347015
